IXPE                    
1 49954U 21121A   24050.00001157  .00006217  00000+0  46224-3 0  9999
2 49954   0.2292 196.7684 0009821 310.5875 239.2618 14.96567978  5208
